NORAD_CAT_ID,OBJECT_NAME,OBJECT_TYPE,EPOCH,MEAN_MOTION,ECCENTRICITY,INCLINATION,RA_OF_ASC_NODE,ARG_OF_PERICENTER,MEAN_ANOMALY,BSTAR,MEAN_MOTION_DOT,MEAN_MOTION_DDOT,TLE_LINE0,TLE_LINE1,TLE_LINE2,SEMIMAJOR_AXIS,PERIOD,APOGEE,PERIGEE,DECAYED
51756.0,STARLINK-3513,PAYLOAD,2022-11-15 10:59:28,15.0883648,0.000255,53.2168,342.0783,33.4689,326.6464,4.4261e-05,4.16e-06,0.0,0 STARLINK-3513,1 51756U 22016AU  22319.45797259  .00000416  00000-0  44261-4 0  9992,2 51756  53.2168 342.0783 0002550  33.4689 326.6464 15.08836480 41002,6917.891,95.438,541.52,537.992,0.0
51756.0,STARLINK-3513,PAYLOAD,2022-11-15 20:31:47,15.08833584,0.0002552,53.2177,340.2927,29.9224,330.1914,0.00014964,2.094e-05,0.0,0 STARLINK-3513,1 51756U 22016AU  22319.85541605  .00002094  00000-0  14964-3 0  9998,2 51756  53.2177 340.2927 0002552  29.9224 330.1914 15.08833584 41067,6917.9,95.438,541.53,538.0,0.0
51756.0,STARLINK-3513,PAYLOAD,2022-11-16 07:39:29,15.08834474,0.0002489,53.2181,338.211,30.6183,329.4954,0.00021512,3.137e-05,0.0,0 STARLINK-3513,1 51756U 22016AU  22320.31909605  .00003137  00000-0  21512-3 0  9995,2 51756  53.2181 338.2110 0002489  30.6183 329.4954 15.08834474 41137,6917.897,95.438,541.484,538.04,0.0
51756.0,STARLINK-3513,PAYLOAD,2022-11-16 18:47:12,15.08836478,0.0002653,53.2179,336.1294,32.2519,327.8635,0.00011891,1.604e-05,0.0,0 STARLINK-3513,1 51756U 22016AU  22320.78277829  .00001604  00000-0  11891-3 0  9998,2 51756  53.2179 336.1294 0002653  32.2519 327.8635 15.08836478 42278,6917.891,95.438,541.591,537.9209999999998,0.0
51756.0,STARLINK-3513,PAYLOAD,2022-11-17 01:08:43,15.08846781,0.0002613,53.2175,334.9391,32.7247,327.3906,0.00010783,1.428e-05,0.0,0 STARLINK-3513,1 51756U 22016AU  22321.04773108  .00001428  00000-0  10783-3 0  9992,2 51756  53.2175 334.9391 0002613  32.7247 327.3906 15.08846781 42316,6917.86,95.437,541.5319999999998,537.9169999999998,0.0
51756.0,STARLINK-3513,PAYLOAD,2022-11-17 07:30:16,15.08852732,0.0002638,53.2175,333.75,33.2671,326.8486,0.00016342,2.314e-05,0.0,0 STARLINK-3513,1 51756U 22016AU  22321.31268622  .00002314  00000-0  16342-3 0  9994,2 51756  53.2175 333.7500 0002638  33.2671 326.8486 15.08852732 41284,6917.840999999999,95.437,541.531,537.882,0.0
51756.0,STARLINK-3513,PAYLOAD,2022-11-17 15:27:12,15.0884155,0.0002563,53.2165,332.2635,31.6928,328.4218,7.3558e-05,8.83e-06,0.0,0 STARLINK-3513,1 51756U 22016AU  22321.64389407  .00000883  00000-0  73558-4 0  9997,2 51756  53.2165 332.2635 0002563  31.6928 328.4218 15.08841550 42402,6917.876,95.437,541.514,537.9680000000002,0.0
51756.0,STARLINK-3513,PAYLOAD,2022-11-18 07:21:04,15.08837242,0.0002705,53.2166,329.2892,34.4027,325.714,-5.7637e-06,-3.8e-06,0.0,0 STARLINK-3513,1 51756U 22016AU  22322.30629690 -.00000380  00000-0 -57637-5 0  9997,2 51756  53.2166 329.2892 0002705  34.4027 325.7140 15.08837242 41432,6917.889,95.438,541.625,537.883,0.0
51756.0,STARLINK-3513,PAYLOAD,2022-11-19 00:50:18,15.08845429,0.0002626,53.2184,326.0171,35.7386,324.3782,2.8169e-05,1.6e-06,0.0,0 STARLINK-3513,1 51756U 22016AU  22323.03493226  .00000160  00000-0  28169-4 0  9993,2 51756  53.2184 326.0171 0002626  35.7386 324.3782 15.08845429 42615,6917.864000000001,95.437,541.545,537.9119999999998,0.0
51756.0,STARLINK-3513,PAYLOAD,2022-11-19 16:44:09,15.08848821,0.0002667,53.2187,323.0428,36.3984,323.7189,1.8201e-05,1e-08,0.0,0 STARLINK-3513,1 51756U 22016AU  22323.69732862  .00000001  00000-0  18201-4 0  9997,2 51756  53.2187 323.0428 0002667  36.3984 323.7189 15.08848821 41641,6917.853,95.437,541.563,537.873,0.0
51756.0,STARLINK-3513,PAYLOAD,2022-11-20 00:41:05,15.08838015,0.00026,53.2179,321.5552,31.9934,328.1216,0.0001412,1.959e-05,0.0,0 STARLINK-3513,1 51756U 22016AU  22324.02853189  .00001959  00000-0  14120-3 0  9999,2 51756  53.2179 321.5552 0002600  31.9934 328.1216 15.08838015 42764,6917.886,95.438,541.55,537.953,0.0
51756.0,STARLINK-3513,PAYLOAD,2022-11-20 16:34:56,15.0884366,0.0002689,53.2164,318.5829,30.3584,329.7563,0.00014715,2.055e-05,0.0,0 STARLINK-3513,1 51756U 22016AU  22324.69093011  .00002055  00000-0  14715-3 0  9990,2 51756  53.2164 318.5829 0002689  30.3584 329.7563 15.08843660 41798,6917.869000000002,95.437,541.594,537.874,0.0
51756.0,STARLINK-3513,PAYLOAD,2022-11-21 03:42:39,15.08836315,0.0002579,53.2167,316.4995,35.0178,325.0983,-3.5086e-05,-8.47e-06,0.0,0 STARLINK-3513,1 51756U 22016AU  22325.15462003 -.00000847  00000-0 -35086-4 0  9997,2 51756  53.2167 316.4995 0002579  35.0178 325.0983 15.08836315 42932,6917.892,95.438,541.5409999999998,537.9730000000002,0.0
51756.0,STARLINK-3513,PAYLOAD,2022-11-21 06:53:25,15.08834446,0.0002569,53.2172,315.9048,34.6597,325.4562,-5.3266e-05,-1.136e-05,0.0,0 STARLINK-3513,1 51756U 22016AU  22325.28710152 -.00001136  00000-0 -53266-4 0  9994,2 51756  53.2172 315.9048 0002569  34.6597 325.4562 15.08834446 41883,6917.897,95.438,541.54,537.985,0.0
51756.0,STARLINK-3513,PAYLOAD,2022-11-21 16:25:43,15.08844554,0.0002659,53.2172,314.1211,32.0519,328.0635,-9.3495e-05,-1.776e-05,0.0,0 STARLINK-3513,1 51756U 22016AU  22325.68453600 -.00001776  00000-0 -93495-4 0  9998,2 51756  53.2172 314.1211 0002659  32.0519 328.0635 15.08844554 41940,6917.866,95.437,541.571,537.8919999999998,0.0
51756.0,STARLINK-3513,PAYLOAD,2022-11-22 05:08:48,15.08843735,0.0002732,53.2171,311.7427,32.0287,328.0871,9.5975e-05,1.239e-05,0.0,0 STARLINK-3513,1 51756U 22016AU  22326.21445345  .00001239  00000-0  95975-4 0  9992,2 51756  53.2171 311.7427 0002732  32.0287 328.0871 15.08843735 43095,6917.869000000002,95.437,541.624,537.844,0.0
51756.0,STARLINK-3513,PAYLOAD,2022-11-22 06:44:11,15.08844242,0.0002735,53.2174,311.4459,32.5877,327.5283,0.00010149,1.327e-05,0.0,0 STARLINK-3513,1 51756U 22016AU  22326.28069309  .00001327  00000-0  10149-3 0  9998,2 51756  53.2174 311.4459 0002735  32.5877 327.5283 15.08844242 42031,6917.8669999999975,95.437,541.624,537.84,0.0
51756.0,STARLINK-3513,PAYLOAD,2022-11-23 08:10:22,15.08834094,0.0002634,53.2171,306.6903,30.2831,329.8313,0.00012443,1.692e-05,0.0,0 STARLINK-3513,1 51756U 22016AU  22327.34053949  .00001692  00000-0  12443-3 0  9993,2 51756  53.2171 306.6903 0002634  30.2831 329.8313 15.08834094 43260,6917.898,95.438,541.586,537.941,0.0
51756.0,STARLINK-3513,PAYLOAD,2022-11-23 16:07:18,15.08833708,0.0002893,53.2175,305.2036,31.5094,328.6071,7.8798e-05,9.66e-06,0.0,0 STARLINK-3513,1 51756U 22016AU  22327.67174306  .00000966  00000-0  78798-4 0  9999,2 51756  53.2175 305.2036 0002893  31.5094 328.6071 15.08833708 42244,6917.9,95.438,541.766,537.763,0.0
51756.0,STARLINK-3513,PAYLOAD,2022-11-24 08:01:09,15.08844775,0.0002751,53.217,302.2281,35.0014,325.1159,4.2732e-05,3.92e-06,0.0,0 STARLINK-3513,1 51756U 22016AU  22328.33413693  .00000392  00000-0  42732-4 0  9990,2 51756  53.2170 302.2281 0002751  35.0014 325.1159 15.08844775 42348,6917.866,95.437,541.634,537.828,0.0
51756.0,STARLINK-3513,PAYLOAD,2022-11-24 15:58:04,15.08857566,0.0002791,53.2172,300.7416,34.5161,325.6012,-1.6526e-05,-5.52e-06,0.0,0 STARLINK-3513,1 51756U 22016AU  22328.66532781 -.00000552  00000-0 -16526-4 0  9998,2 51756  53.2172 300.7416 0002791  34.5161 325.6012 15.08857566 42394,6917.8269999999975,95.436,541.622,537.761,0.0
51756.0,STARLINK-3513,PAYLOAD,2022-11-24 22:19:37,15.08839939,0.0002796,53.2164,299.5529,36.4522,323.666,0.00012337,1.676e-05,0.0,0 STARLINK-3513,1 51756U 22016AU  22328.93029484  .00001676  00000-0  12337-3 0  9990,2 51756  53.2164 299.5529 0002796  36.4522 323.6660 15.08839939 43507,6917.880999999999,95.438,541.68,537.811,0.0
51756.0,STARLINK-3513,PAYLOAD,2022-11-25 07:51:56,15.08836428,0.0002759,53.2163,297.7679,34.7327,325.3845,9.3527e-05,1.2e-05,0.0,0 STARLINK-3513,1 51756U 22016AU  22329.32773806  .00001200  00000-0  93527-4 0  9992,2 51756  53.2163 297.7679 0002759  34.7327 325.3845 15.08836428 42496,6917.891,95.438,541.665,537.8480000000002,0.0
51756.0,STARLINK-3513,PAYLOAD,2022-11-26 02:56:33,15.08847296,0.0002779,53.2169,294.1997,35.4376,324.68,8.1129e-05,1.003e-05,0.0,0 STARLINK-3513,1 51756U 22016AU  22330.12261227  .00001003  00000-0  81129-4 0  9997,2 51756  53.2169 294.1997 0002779  35.4376 324.6800 15.08847296 43680,6917.858,95.437,541.646,537.8009999999998,0.0
51756.0,STARLINK-3513,PAYLOAD,2022-11-26 07:42:43,15.08847095,0.0002802,53.2169,293.3077,35.4365,324.6813,7.3007e-05,8.74e-06,0.0,0 STARLINK-3513,1 51756U 22016AU  22330.32133209  .00000874  00000-0  73007-4 0  9998,2 51756  53.2169 293.3077 0002802  35.4365 324.6813 15.08847095 42641,6917.859,95.437,541.6619999999998,537.785,0.0
51756.0,STARLINK-3513,PAYLOAD,2022-11-26 20:25:46,15.08869913,0.0002937,53.2169,290.9286,36.2715,323.8476,-0.00018648,-3.258e-05,0.0,0 STARLINK-3513,1 51756U 22016AU  22330.85123755 -.00003258  00000-0 -18648-3 0  9991,2 51756  53.2169 290.9286 0002937  36.2715 323.8476 15.08869913 43799,6917.7890000000025,95.436,541.686,537.622,0.0
51756.0,STARLINK-3513,PAYLOAD,2022-11-27 01:11:54,15.08918874,0.0003355,53.2171,290.0355,36.3153,323.8067,-0.0010143,-0.00016432,0.0,0 STARLINK-3513,1 51756U 22016AU  22331.04994134 -.00016432  00000-0 -10143-2 0  9999,2 51756  53.2171 290.0355 0003355  36.3153 323.8067 15.08918874 43823,6917.639,95.433,541.825,537.183,0.0
51756.0,STARLINK-3513,PAYLOAD,2022-11-27 12:19:39,15.08835418,0.0002715,53.2169,287.955,32.5777,327.5382,-2.4045e-06,-3.27e-06,0.0,0 STARLINK-3513,1 51756U 22016AU  22331.51365726 -.00000327  00000-0 -24045-5 0  9995,2 51756  53.2169 287.9550 0002715  32.5777 327.5382 15.08835418 43891,6917.894,95.438,541.638,537.881,0.0
51756.0,STARLINK-3513,PAYLOAD,2022-11-28 05:48:55,15.08829499,0.0002783,53.2175,284.6839,31.7159,328.4001,-2.9412e-05,-7.57e-06,0.0,0 STARLINK-3513,1 51756U 22016AU  22332.24230441 -.00000757  00000-0 -29412-4 0  9990,2 51756  53.2175 284.6839 0002783  31.7159 328.4001 15.08829499 44006,6917.9119999999975,95.438,541.703,537.852,0.0
